     3.00           N                   E                   RINEX VERSION / TYPE
BRD_USR             ESA                 20190112 101715  UTCPGM / RUN BY / DATE
 GAL   3.6000E+01  1.1719E-01  1.0681E-03  0.0000E+00       IONOSPHERIC CORR
GAUT  2.7939677238E-09-1.776356839E-15 518400 2035 GSTB   0 TIME SYSTEM CORR
GPGA  2.1827872843E-09 1.199040867E-14 518400 2035 GSTB   0 TIME SYSTEM CORR
                                                            END OF HEADER
E36 2019 01 12 07 50 00 7.606178405695E-04-4.519051799434E-12 0.000000000000E+00
     1.500000000000E+01 2.946875000000E+01 3.040126633477E-09-8.894854840121E-01
     1.307576894760E-06 3.338940441608E-04 4.449859261513E-06 5.440593935013E+03
     5.466000000000E+05-9.313225746155E-09-8.690785272833E-01-8.568167686462E-08
     9.851666447394E-01 2.568750000000E+02-1.535635655446E+00-5.725952794632E-09
     2.621537768999E-10 2.580000000000E+02 2.035000000000E+03 0.000000000000E+00
     3.120000000000E+00 5.600000000000E+01 1.164153218269E-09 0.000000000000E+00
     5.477000000000E+05 0.000000000000E+00 0.000000000000E+00 0.000000000000E+00
E36 2019 01 12 07 50 00 7.606182480231E-04-4.519051799434E-12 0.000000000000E+00
     1.500000000000E+01 2.946875000000E+01 3.040126633477E-09-8.894854840121E-01
     1.307576894760E-06 3.338940441608E-04 4.449859261513E-06 5.440593935013E+03
     5.466000000000E+05-9.313225746155E-09-8.690785272833E-01-8.568167686462E-08
     9.851666447394E-01 2.568750000000E+02-1.535635655446E+00-5.725952794632E-09
     2.621537768999E-10 5.210000000000E+02 2.035000000000E+03 0.000000000000E+00
     3.120000000000E+00 4.550000000000E+02 1.164153218269E-09 1.164153218269E-09
     5.477050000000E+05 0.000000000000E+00 0.000000000000E+00 0.000000000000E+00
E33 2019 01 12 07 50 00 8.479075040668E-04 1.136868377216E-13 0.000000000000E+00
     1.500000000000E+01 3.150000000000E+01 3.051912838706E-09 1.361283172577E+00
     1.495704054832E-06 3.685996634886E-04 3.550201654434E-06 5.440596569061E+03
     5.466000000000E+05 4.284083843231E-08-8.691053294055E-01-1.117587089539E-08
     9.851585387103E-01 2.792500000000E+02-1.431880494770E+00-5.752382466962E-09
     2.700112470522E-10 5.210000000000E+02 2.035000000000E+03 0.000000000000E+00
     3.120000000000E+00 4.550000000000E+02-8.149072527885E-09-9.313225746155E-09
     5.477350000000E+05 0.000000000000E+00 0.000000000000E+00 0.000000000000E+00
E33 2019 01 12 07 50 00 8.479084353894E-04 1.136868377216E-13 0.000000000000E+00
     1.500000000000E+01 3.150000000000E+01 3.051912838706E-09 1.361283172577E+00
     1.495704054832E-06 3.685996634886E-04 3.550201654434E-06 5.440596569061E+03
     5.466000000000E+05 4.284083843231E-08-8.691053294055E-01-1.117587089539E-08
     9.851585387103E-01 2.792500000000E+02-1.431880494770E+00-5.752382466962E-09
     2.700112470522E-10 2.580000000000E+02 2.035000000000E+03 0.000000000000E+00
     3.120000000000E+00 5.600000000000E+01-8.149072527885E-09 0.000000000000E+00
     5.477500000000E+05 0.000000000000E+00 0.000000000000E+00 0.000000000000E+00
E18 2019 01 12 07 20 00 5.612450477201E-03-2.847855284926E-11 0.000000000000E+00
     1.200000000000E+01 1.031250000000E+00 2.321525272275E-09 1.231188285991E+00
    -6.593763828278E-07 1.663107075728E-01 6.217509508133E-06 5.289366357803E+03
     5.448000000000E+05 3.980472683907E-06-1.448455116690E+00 1.486390829086E-06
     8.818498606321E-01 1.909062500000E+02 1.441592199324E+00-2.507961609525E-09
    -5.221646073947E-10 2.580000000000E+02 2.035000000000E+03 0.000000000000E+00
     3.120000000000E+00 5.600000000000E+01 1.420266926289E-08 0.000000000000E+00
     5.478500000000E+05 0.000000000000E+00 0.000000000000E+00 0.000000000000E+00
E18 2019 01 12 07 20 00 5.612452281639E-03-2.847855284926E-11 0.000000000000E+00
     1.200000000000E+01 1.031250000000E+00 2.321525272275E-09 1.231188285991E+00
    -6.593763828278E-07 1.663107075728E-01 6.217509508133E-06 5.289366357803E+03
     5.448000000000E+05 3.980472683907E-06-1.448455116690E+00 1.486390829086E-06
     8.818498606321E-01 1.909062500000E+02 1.441592199324E+00-2.507961609525E-09
    -5.221646073947E-10 5.210000000000E+02 2.035000000000E+03 0.000000000000E+00
     3.120000000000E+00 4.550000000000E+02 1.420266926289E-08 1.583248376846E-08
     5.478550000000E+05 0.000000000000E+00 0.000000000000E+00 0.000000000000E+00
E02 2019 01 12 08 00 00 4.299532156438E-05 1.534772309242E-12 0.000000000000E+00
     1.600000000000E+01 9.062500000000E-01 2.816188734136E-09-8.808371409625E-01
     4.656612873077E-08 2.640800084919E-04 6.424263119698E-06 5.440613929749E+03
     5.472000000000E+05 1.676380634308E-08-2.949112893864E+00-9.313225746155E-09
     9.901549949699E-01 2.135937500000E+02-1.645474280494E-01-5.493443109670E-09
    -2.946551307118E-10 5.210000000000E+02 2.035000000000E+03 0.000000000000E+00
     3.120000000000E+00 0.000000000000E+00-6.053596735001E-09-7.450580596924E-09
     5.478850000000E+05 0.000000000000E+00 0.000000000000E+00 0.000000000000E+00
E03 2019 01 12 08 00 00-1.212677452713E-04-4.234834705130E-12 0.000000000000E+00
     1.600000000000E+01-3.490625000000E+01 3.211562345891E-09 4.296021572371E-01
    -1.581385731697E-06 2.578977728263E-04 1.062639057636E-05 5.440620340347E+03
     5.472000000000E+05-2.421438694000E-08 1.241533859783E+00 2.421438694000E-08
     9.524464674584E-01 1.077500000000E+02 6.159217532590E-01-5.504157841696E-09
     9.678974596714E-11 5.210000000000E+02 2.035000000000E+03 0.000000000000E+00
     3.120000000000E+00 0.000000000000E+00-2.095475792885E-09-2.328306436539E-09
     5.478850000000E+05 0.000000000000E+00 0.000000000000E+00 0.000000000000E+00
E05 2019 01 12 08 00 00 1.264594611712E-04-6.522782314278E-12 0.000000000000E+00
     1.600000000000E+01-4.518750000000E+01 3.054412942845E-09 1.998397971354E-01
    -2.078711986542E-06 1.343417679891E-04 1.175887882710E-05 5.440625703812E+03
     5.472000000000E+05-7.450580596924E-09 1.241518150969E+00-4.284083843231E-08
     9.524603125151E-01 8.387500000000E+01 1.633179742869E+00-5.473799434289E-09
     5.393081786361E-11 5.210000000000E+02 2.035000000000E+03 0.000000000000E+00
     3.120000000000E+00 0.000000000000E+00-1.396983861923E-09-1.629814505577E-09
     5.478850000000E+05 0.000000000000E+00 0.000000000000E+00 0.000000000000E+00
E09 2019 01 12 08 00 00 6.560672074556E-03-1.131184035330E-11 0.000000000000E+00
     1.600000000000E+01-3.540625000000E+01 3.064056201668E-09 2.530101091723E+00
    -1.784414052963E-06 2.406724961475E-04 1.235492527485E-05 5.440621297836E+03
     5.472000000000E+05 2.048909664154E-08 1.232920957387E+00 0.000000000000E+00
     9.584637216212E-01 7.306250000000E+01 8.654392215888E-02-5.466656279605E-09
     1.285767843106E-11 5.210000000000E+02 2.035000000000E+03 0.000000000000E+00
     3.120000000000E+00 0.000000000000E+00-3.492459654808E-09-3.958120942116E-09
     5.478850000000E+05 0.000000000000E+00 0.000000000000E+00 0.000000000000E+00
E11 2019 01 12 08 00 00 5.719622888137E-03 8.100187187665E-13 0.000000000000E+00
     1.600000000000E+01 3.278125000000E+01 3.119058492734E-09-1.217707618776E+00
     1.516193151474E-06 2.730045234784E-04 4.269182682037E-06 5.440599149704E+03
     5.472000000000E+05 4.097819328308E-08-8.637841960332E-01-2.421438694000E-08
     9.819205670358E-01 2.595312500000E+02-3.530682227772E-01-5.781312243432E-09
     2.989410235221E-10 5.210000000000E+02 2.035000000000E+03 0.000000000000E+00
     3.120000000000E+00 0.000000000000E+00-1.839362084866E-08-2.002343535423E-08
     5.478850000000E+05 0.000000000000E+00 0.000000000000E+00 0.000000000000E+00
E12 2019 01 12 08 00 00 5.924574215896E-03 8.435563358944E-11 0.000000000000E+00
     1.600000000000E+01 3.178125000000E+01 3.152274162015E-09 9.031049441173E-02
     1.505017280579E-06 3.972375998273E-04 3.937631845474E-06 5.440601316452E+03
     5.472000000000E+05 3.166496753693E-08-8.638000350472E-01-1.117587089539E-08
     9.819347558783E-01 2.683437500000E+02-8.574559927810E-01-5.801313076547E-09
     2.875119760278E-10 5.210000000000E+02 2.035000000000E+03 0.000000000000E+00
     3.120000000000E+00 0.000000000000E+00-1.559965312481E-08-1.583248376846E-08
     5.478850000000E+05 0.000000000000E+00 0.000000000000E+00 0.000000000000E+00
E13 2019 01 12 08 00 00 3.816349781118E-04 5.258016244625E-13 0.000000000000E+00
     1.600000000000E+01 2.118750000000E+01 2.996910547639E-09 3.088824145170E+00
     1.054257154465E-06 3.420863067731E-04 3.708526492119E-06 5.440599647522E+03
     5.472000000000E+05 1.490116119385E-08-8.690726346493E-01 7.078051567078E-08
     9.851622472077E-01 2.719062500000E+02-1.511492284521E+00-5.733453107050E-09
     2.232235838726E-10 5.210000000000E+02 2.035000000000E+03 0.000000000000E+00
     3.120000000000E+00 4.550000000000E+02-4.423782229424E-09-5.355104804039E-09
     5.478850000000E+05 0.000000000000E+00 0.000000000000E+00 0.000000000000E+00
E14 2019 01 12 08 00 00 6.461117358413E-03-5.613287612505E-12 0.000000000000E+00
     1.600000000000E+01 9.384375000000E+01 2.460816788611E-09-1.556125509891E+00
     6.454065442085E-06 1.662689967779E-01 3.982335329056E-06 5.289383968353E+03
     5.472000000000E+05 5.275011062622E-06-1.465577800387E+00 1.799315214157E-06
     8.826465760585E-01 2.708750000000E+02 1.456939200371E+00-3.708725911892E-09
     1.475061442230E-10 5.210000000000E+02 2.035000000000E+03 0.000000000000E+00
     3.120000000000E+00 4.550000000000E+02 3.329478204250E-08 3.725290298462E-08
     5.478850000000E+05 0.000000000000E+00 0.000000000000E+00 0.000000000000E+00
